{"type": "FeatureCollection", "features": [ {"type": "Feature", "properties": {"norad_id": 41549, "name": "GSAT0211 (GALILEO 14)", "group": "gnss", "lat": -1.4783329875920812, "lon": 47.980419428247004, "alt_km": 23234.35857508122, "timestamp": "2025-12-08T10:52:03.189433+00:00", "meta": {"OBJECT_NAME": "GSAT0211 (GALILEO 14)", "OBJECT_ID": "2016-030A", "EPOCH": "2025-12-07T13:40:58.264320", "MEAN_MOTION": 1.70472997, "ECCENTRICITY": 0.00040128, "INCLINATION": 55.154, "RA_OF_ASC_NODE": 226.9659, "ARG_OF_PERICENTER": 14.4678, "MEAN_ANOMALY": 345.6377, "EPHEMERIS_TYPE": 0, "CLASSIFICATION_TYPE": "U", "NORAD_CAT_ID": 41549, "ELEMENT_SET_NO": 999, "REV_AT_EPOCH": 5940, "BSTAR": 0, "MEAN_MOTION_DOT": 2.3e-07, "MEAN_MOTION_DDOT": 0}, "tle": {"line1": "1 41549U 16030A   25341.57011880  .00000023  00000+0  00000+0 0  9991", "line2": "2 41549  55.1540 226.9659 0004012  14.4678 345.6377  1.70472997 59400"}}, "geometry": {"type": "Point", "coordinates": [47.980419428247004, -1.4783329875920812]}}, {"type": "Feature", "properties": {"norad_id": 41550, "name": "GSAT0210 (GALILEO 13)", "group": "gnss", "lat": 19.307702750487845, "lon": -118.93658949102101, "alt_km": 23223.150814224464, "timestamp": "2025-12-08T10:52:03.189454+00:00", "meta": {"OBJECT_NAME": "GSAT0210 (GALILEO 13)", "OBJECT_ID": "2016-030B", "EPOCH": "2025-12-04T07:23:32.472672", "MEAN_MOTION": 1.70473512, "ECCENTRICITY": 0.0001419, "INCLINATION": 55.1546, "RA_OF_ASC_NODE": 227.0538, "ARG_OF_PERICENTER": 244.2228, "MEAN_ANOMALY": 115.8568, "EPHEMERIS_TYPE": 0, "CLASSIFICATION_TYPE": "U", "NORAD_CAT_ID": 41550, "ELEMENT_SET_NO": 999, "REV_AT_EPOCH": 5934, "BSTAR": 0, "MEAN_MOTION_DOT": 4e-07, "MEAN_MOTION_DDOT": 0}, "tle": {"line1": "1 41550U 16030B   25338.30801473  .00000040  00000+0  00000+0 0  9994", "line2": "2 41550  55.1546 227.0538 0001419 244.2228 115.8568  1.70473512 59344"}}, "geometry": {"type": "Point", "coordinates": [-118.93658949102101, 19.307702750487845]}}, {"type": "Feature", "properties": {"norad_id": 41586, "name": "BEIDOU-2 G7 (C03)", "group": "gnss", "lat": -1.6980720255429733, "lon": -9.099780521276662, "alt_km": 35782.95971048499, "timestamp": "2025-12-08T10:52:03.189476+00:00", "meta": {"OBJECT_NAME": "BEIDOU-2 G7 (C03)", "OBJECT_ID": "2016-037A", "EPOCH": "2025-12-07T22:43:12.465984", "MEAN_MOTION": 1.00269482, "ECCENTRICITY": 0.00044255, "INCLINATION": 1.7451, "RA_OF_ASC_NODE": 67.7531, "ARG_OF_PERICENTER": 0.5194, "MEAN_ANOMALY": 99.9683, "EPHEMERIS_TYPE": 0, "CLASSIFICATION_TYPE": "U", "NORAD_CAT_ID": 41586, "ELEMENT_SET_NO": 999, "REV_AT_EPOCH": 497, "BSTAR": 0, "MEAN_MOTION_DOT": -3.51e-06, "MEAN_MOTION_DDOT": 0}, "tle": {"line1": "1 41586U 16037A   25341.94667206 -.00000351  00000+0  00000+0 0  9994", "line2": "2 41586   1.7451  67.7531 0004425   0.5194  99.9683  1.00269482  4973"}}, "geometry": {"type": "Point", "coordinates": [-9.099780521276662, -1.6980720255429733]}}, {"type": "Feature", "properties": {"norad_id": 41589, "name": "EUTELSAT 117 WEST B (WAAS/PRN 131)", "group": "gnss", "lat": -0.009162332008130934, "lon": 123.44649101944313, "alt_km": 35785.6442239453, "timestamp": "2025-12-08T10:52:03.189495+00:00", "meta": {"OBJECT_NAME": "EUTELSAT 117 WEST B (WAAS/PRN 131)", "OBJECT_ID": "2016-038B", "EPOCH": "2025-12-07T16:30:05.997888", "MEAN_MOTION": 1.00264607, "ECCENTRICITY": 5.814e-05, "INCLINATION": 0.0035, "RA_OF_ASC_NODE": 146.5968, "ARG_OF_PERICENTER": 345.3614, "MEAN_ANOMALY": 75.2712, "EPHEMERIS_TYPE": 0, "CLASSIFICATION_TYPE": "U", "NORAD_CAT_ID": 41589, "ELEMENT_SET_NO": 999, "REV_AT_EPOCH": 3474, "BSTAR": 0, "MEAN_MOTION_DOT": -7e-08, "MEAN_MOTION_DDOT": 0}, "tle": {"line1": "1 41589U 16038B   25341.68756942 -.00000007  00000+0  00000+0 0  9993", "line2": "2 41589   0.0035 146.5968 0000581 345.3614  75.2712  1.00264607 34744"}}, "geometry": {"type": "Point", "coordinates": [123.44649101944313, -0.009162332008130934]}}, {"type": "Feature", "properties": {"norad_id": 41859, "name": "GSAT0207 (GALILEO 15)", "group": "gnss", "lat": -26.618234904986625, "lon": -53.40752781739089, "alt_km": 23227.969037352515, "timestamp": "2025-12-08T10:52:03.189512+00:00", "meta": {"OBJECT_NAME": "GSAT0207 (GALILEO 15)", "OBJECT_ID": "2016-069A", "EPOCH": "2025-12-06T22:22:57.829728", "MEAN_MOTION": 1.70474256, "ECCENTRICITY": 0.00021753, "INCLINATION": 55.3787, "RA_OF_ASC_NODE": 106.4111, "ARG_OF_PERICENTER": 324.2379, "MEAN_ANOMALY": 35.7022, "EPHEMERIS_TYPE": 0, "CLASSIFICATION_TYPE": "U", "NORAD_CAT_ID": 41859, "ELEMENT_SET_NO": 999, "REV_AT_EPOCH": 5612, "BSTAR": 0, "MEAN_MOTION_DOT": 7e-08, "MEAN_MOTION_DDOT": 0}, "tle": {"line1": "1 41859U 16069A   25340.93261377  .00000007  00000+0  00000+0 0  9996", "line2": "2 41859  55.3787 106.4111 0002175 324.2379  35.7022  1.70474256 56122"}}, "geometry": {"type": "Point", "coordinates": [-53.40752781739089, -26.618234904986625]}}, {"type": "Feature", "properties": {"norad_id": 41860, "name": "GSAT0212 (GALILEO 16)", "group": "gnss", "lat": -43.78264721726883, "lon": 64.94073243993559, "alt_km": 23227.16364967236, "timestamp": "2025-12-08T10:52:03.189531+00:00", "meta": {"OBJECT_NAME": "GSAT0212 (GALILEO 16)", "OBJECT_ID": "2016-069B", "EPOCH": "2025-12-06T04:47:33.838080", "MEAN_MOTION": 1.70474471, "ECCENTRICITY": 0.00022225, "INCLINATION": 55.376, "RA_OF_ASC_NODE": 106.4267, "ARG_OF_PERICENTER": 32.4045, "MEAN_ANOMALY": 327.5613, "EPHEMERIS_TYPE": 0, "CLASSIFICATION_TYPE": "U", "NORAD_CAT_ID": 41860, "ELEMENT_SET_NO": 999, "REV_AT_EPOCH": 5636, "BSTAR": 0, "MEAN_MOTION_DOT": 6e-08, "MEAN_MOTION_DDOT": 0}, "tle": {"line1": "1 41860U 16069B   25340.19969720  .00000006  00000+0  00000+0 0  9992", "line2": "2 41860  55.3760 106.4267 0002222  32.4045 327.5613  1.70474471 56361"}}, "geometry": {"type": "Point", "coordinates": [64.94073243993559, -43.78264721726883]}}, {"type": "Feature", "properties": {"norad_id": 41861, "name": "GSAT0213 (GALILEO 17)", "group": "gnss", "lat": 53.37843751928708, "lon": 174.56784891773395, "alt_km": 23221.746183592946, "timestamp": "2025-12-08T10:52:03.189548+00:00", "meta": {"OBJECT_NAME": "GSAT0213 (GALILEO 17)", "OBJECT_ID": "2016-069C", "EPOCH": "2025-12-07T03:41:32.905248", "MEAN_MOTION": 1.70474767, "ECCENTRICITY": 0.00022126, "INCLINATION": 55.379, "RA_OF_ASC_NODE": 106.408, "ARG_OF_PERICENTER": 283.542, "MEAN_ANOMALY": 76.3889, "EPHEMERIS_TYPE": 0, "CLASSIFICATION_TYPE": "U", "NORAD_CAT_ID": 41861, "ELEMENT_SET_NO": 999, "REV_AT_EPOCH": 5624, "BSTAR": 0, "MEAN_MOTION_DOT": 7e-08, "MEAN_MOTION_DDOT": 0}, "tle": {"line1": "1 41861U 16069C   25341.15385307  .00000007  00000+0  00000+0 0  9994", "line2": "2 41861  55.3790 106.4080 0002212 283.5420  76.3889  1.70474767 56242"}}, "geometry": {"type": "Point", "coordinates": [174.56784891773395, 53.37843751928708]}}, {"type": "Feature", "properties": {"norad_id": 41862, "name": "GSAT0214 (GALILEO 18)", "group": "gnss", "lat": -10.18286836612424, "lon": 99.23216194573082, "alt_km": 23221.737012369416, "timestamp": "2025-12-08T10:52:03.189565+00:00", "meta": {"OBJECT_NAME": "GSAT0214 (GALILEO 18)", "OBJECT_ID": "2016-069D", "EPOCH": "2025-12-07T07:11:47.189472", "MEAN_MOTION": 1.70474588, "ECCENTRICITY": 0.00012146, "INCLINATION": 55.3773, "RA_OF_ASC_NODE": 106.3967, "ARG_OF_PERICENTER": 290.4025, "MEAN_ANOMALY": 69.5406, "EPHEMERIS_TYPE": 0, "CLASSIFICATION_TYPE": "U", "NORAD_CAT_ID": 41862, "ELEMENT_SET_NO": 999, "REV_AT_EPOCH": 5637, "BSTAR": 0, "MEAN_MOTION_DOT": 7e-08, "MEAN_MOTION_DDOT": 0}, "tle": {"line1": "1 41862U 16069D   25341.29985173  .00000007  00000+0  00000+0 0  9997", "line2": "2 41862  55.3773 106.3967 0001214 290.4025  69.5406  1.70474588 56370"}}, "geometry": {"type": "Point", "coordinates": [99.23216194573082, -10.18286836612424]}}, {"type": "Feature", "properties": {"norad_id": 42709, "name": "SES-15 (WAAS/PRN 133)", "group": "gnss", "lat": 0.033544870849332636, "lon": 111.29131885749364, "alt_km": 35789.668089605875, "timestamp": "2025-12-08T10:52:03.189586+00:00", "meta": {"OBJECT_NAME": "SES-15 (WAAS/PRN 133)", "OBJECT_ID": "2017-026A", "EPOCH": "2025-12-07T18:09:26.485056", "MEAN_MOTION": 1.00266275, "ECCENTRICITY": 5.014e-05, "INCLINATION": 0.0199, "RA_OF_ASC_NODE": 345.2589, "ARG_OF_PERICENTER": 298.7621, "MEAN_ANOMALY": 295.9504, "EPHEMERIS_TYPE": 0, "CLASSIFICATION_TYPE": "U", "NORAD_CAT_ID": 42709, "ELEMENT_SET_NO": 999, "REV_AT_EPOCH": 551, "BSTAR": 0, "MEAN_MOTION_DOT": 6.4e-07, "MEAN_MOTION_DDOT": 0}, "tle": {"line1": "1 42709U 17026A   25341.75655654  .00000064  00000+0  00000+0 0  9994", "line2": "2 42709   0.0199 345.2589 0000501 298.7621 295.9504  1.00266275  5514"}}, "geometry": {"type": "Point", "coordinates": [111.29131885749364, 0.033544870849332636]}}, {"type": "Feature", "properties": {"norad_id": 42738, "name": "QZS-2 (QZSS/PRN 194)", "group": "gnss", "lat": 29.234557625856418, "lon": 23.674271309961053, "alt_km": 38083.451937573736, "timestamp": "2025-12-08T10:52:03.189605+00:00", "meta": {"OBJECT_NAME": "QZS-2 (QZSS/PRN 194)", "OBJECT_ID": "2017-028A", "EPOCH": "2025-12-07T14:16:11.320608", "MEAN_MOTION": 1.0028442, "ECCENTRICITY": 0.07584265, "INCLINATION": 39.7227, "RA_OF_ASC_NODE": 245.9588, "ARG_OF_PERICENTER": 269.4237, "MEAN_ANOMALY": 276.9001, "EPHEMERIS_TYPE": 0, "CLASSIFICATION_TYPE": "U", "NORAD_CAT_ID": 42738, "ELEMENT_SET_NO": 999, "REV_AT_EPOCH": 570, "BSTAR": 0, "MEAN_MOTION_DOT": -1.76e-06, "MEAN_MOTION_DDOT": 0}, "tle": {"line1": "1 42738U 17028A   25341.59457547 -.00000176  00000+0  00000+0 0  9996", "line2": "2 42738  39.7227 245.9588 0758426 269.4237 276.9001  1.00284420  5700"}}, "geometry": {"type": "Point", "coordinates": [23.674271309961053, 29.234557625856418]}}]}